NORAD_CAT_ID,OBJECT_NAME,OBJECT_TYPE,EPOCH,MEAN_MOTION,ECCENTRICITY,INCLINATION,RA_OF_ASC_NODE,ARG_OF_PERICENTER,MEAN_ANOMALY,BSTAR,MEAN_MOTION_DOT,MEAN_MOTION_DDOT,TLE_LINE0,TLE_LINE1,TLE_LINE2,SEMIMAJOR_AXIS,PERIOD,APOGEE,PERIGEE,DECAYED
55400.0,STARLINK-5632,PAYLOAD,2023-09-15 01:54:38,14.98327901,0.0002815,70.0016,190.3564,268.2032,91.8805,-5.4298e-05,-7.41e-06,0.0,0 STARLINK-5632,1 55400U 23014K   23258.07960995 -.00000741  00000-0 -54298-4 0  9995,2 55400  70.0016 190.3564 0002815 268.2032  91.8805 14.98327901 35314,6950.199,96.107,574.021,570.108,0.0
55400.0,STARLINK-5632,PAYLOAD,2023-09-15 05:06:54,14.98331717,0.0002758,70.0018,190.0201,267.7016,92.3828,-2.0699e-05,-3.4e-06,0.0,0 STARLINK-5632,1 55400U 23014K   23258.21312669 -.00000340  00000-0 -20699-4 0  9993,2 55400  70.0018 190.0201 0002758 267.7016  92.3828 14.98331717 36270,6950.188,96.107,573.969,570.136,0.0
55400.0,STARLINK-5632,PAYLOAD,2023-09-16 01:56:38,14.98328172,0.0002865,70.0018,187.8324,270.9715,89.1116,0.00019024,2.178e-05,0.0,0 STARLINK-5632,1 55400U 23014K   23259.08100310  .00002178  00000-0  19024-3 0  9995,2 55400  70.0018 187.8324 0002865 270.9715  89.1116 14.98328172 35466,6950.199,96.107,574.055,570.072,0.0
55400.0,STARLINK-5632,PAYLOAD,2023-09-16 05:08:54,14.98332637,0.0002831,70.0018,187.4957,271.0449,89.0385,0.00016426,1.868e-05,0.0,0 STARLINK-5632,1 55400U 23014K   23259.21452096  .00001868  00000-0  16426-3 0  9999,2 55400  70.0018 187.4957 0002831 271.0449  89.0385 14.98332637 36428,6950.185,96.107,574.017,570.082,0.0
55400.0,STARLINK-5632,PAYLOAD,2023-09-17 01:58:40,14.98328702,0.0002771,70.0019,185.3086,263.3811,96.7033,-3.5739e-05,-5.19e-06,0.0,0 STARLINK-5632,1 55400U 23014K   23260.08240930 -.00000519  00000-0 -35739-4 0  9991,2 55400  70.0019 185.3086 0002771 263.3811  96.7033 14.98328702 35612,6950.197,96.107,573.988,570.136,0.0
55400.0,STARLINK-5632,PAYLOAD,2023-09-17 05:10:56,14.98331834,0.0002811,70.0018,184.9722,263.4028,96.6811,-3.6029e-06,-1.36e-06,0.0,0 STARLINK-5632,1 55400U 23014K   23260.21592624 -.00000136  00000-0 -36029-5 0  9995,2 55400  70.0018 184.9722 0002811 263.4028  96.6811 14.98331834 36578,6950.187,96.107,574.006,570.099,0.0
55400.0,STARLINK-5632,PAYLOAD,2023-09-18 02:00:40,14.98338715,0.0002965,70.0017,182.7845,267.0156,93.0663,1.128e-05,4.2e-07,0.0,0 STARLINK-5632,1 55400U 23014K   23261.08379858  .00000042  00000-0  11280-4 0  9998,2 55400  70.0017 182.7845 0002965 267.0156  93.0663 14.98338715 35762,6950.166,96.106,574.092,569.97,0.0
55400.0,STARLINK-5632,PAYLOAD,2023-09-18 05:12:56,14.98339959,0.0002807,70.0019,182.448,263.1246,96.9594,2.8603e-05,2.48e-06,0.0,0 STARLINK-5632,1 55400U 23014K   23261.21731649  .00000248  00000-0  28603-4 0  9998,2 55400  70.0019 182.4480 0002807 263.1246  96.9594 14.98339959 36721,6950.162,96.106,573.978,570.076,0.0
55400.0,STARLINK-5632,PAYLOAD,2023-09-18 21:14:17,14.98326084,0.0002394,70.0032,180.7667,237.7253,122.3675,6.3161e-05,6.61e-06,0.0,0 STARLINK-5632,1 55400U 23014K   23261.88492286  .00000661  00000-0  63161-4 0  9999,2 55400  70.0032 180.7667 0002394 237.7253 122.3675 14.98326084 36820,6950.205,96.107,573.734,570.406,0.0
55400.0,STARLINK-5632,PAYLOAD,2023-09-19 02:02:41,14.98329641,0.0002325,70.0034,180.262,240.6371,119.4556,6.7485e-05,7.12e-06,0.0,0 STARLINK-5632,1 55400U 23014K   23262.08520096  .00000712  00000-0  67485-4 0  9993,2 55400  70.0034 180.2620 0002325 240.6371 119.4556 14.98329641 35910,6950.194,96.107,573.675,570.443,0.0
55400.0,STARLINK-5632,PAYLOAD,2023-09-20 02:04:42,14.98329254,0.0002532,70.0034,177.7377,241.2394,118.8511,-3.6289e-05,-5.26e-06,0.0,0 STARLINK-5632,1 55400U 23014K   23263.08660055 -.00000526  00000-0 -36289-4 0  9997,2 55400  70.0034 177.7377 0002532 241.2394 118.8511 14.98329254 36063,6950.195,96.107,573.82,570.3,0.0
55400.0,STARLINK-5632,PAYLOAD,2023-09-20 03:40:50,14.98328825,0.0002502,70.0034,177.5693,243.0656,117.0248,-3.1742e-05,-4.72e-06,0.0,0 STARLINK-5632,1 55400U 23014K   23263.15336078 -.00000472  00000-0 -31742-4 0  9999,2 55400  70.0034 177.5693 0002502 243.0656 117.0248 14.98328825 37017,6950.197,96.107,573.8,570.323,0.0
55400.0,STARLINK-5632,PAYLOAD,2023-09-20 18:06:03,14.98321169,0.000201,70.005,176.0572,232.0227,128.0751,-6.7952e-05,-9.03e-06,0.0,0 STARLINK-5632,1 55400U 23014K   23263.75420943 -.00000903  00000-0 -67952-4 0  9991,2 55400  70.0050 176.0572 0002010 232.0227 128.0751 14.98321169 36161,6950.22,96.108,573.482,570.688,0.0
55400.0,STARLINK-5632,PAYLOAD,2023-09-20 21:18:20,14.9831737,0.0002655,70.0033,175.7184,250.1805,109.9068,-0.00013622,-1.717e-05,0.0,0 STARLINK-5632,1 55400U 23014K   23263.88773381 -.00001717  00000-0 -13622-3 0  9990,2 55400  70.0033 175.7184 0002655 250.1805 109.9068 14.98317370 37120,6950.232,96.108,573.942,570.252,0.0
55400.0,STARLINK-5632,PAYLOAD,2023-09-21 02:06:45,14.9831011,0.0002661,70.0048,175.2154,217.4938,142.6036,-0.00017854,-2.221e-05,0.0,0 STARLINK-5632,1 55400U 23014K   23264.08802153 -.00002221  00000-0 -17854-3 0  9995,2 55400  70.0048 175.2154 0002661 217.4938 142.6036 14.98310110 36211,6950.254,96.108,573.969,570.27,0.0
55400.0,STARLINK-5632,PAYLOAD,2023-09-21 03:42:53,14.9831315,0.0002287,70.0032,175.0428,280.0073,80.0827,-7.7615e-05,-1.018e-05,0.0,0 STARLINK-5632,1 55400U 23014K   23264.15478015 -.00001018  00000-0 -77615-4 0  9994,2 55400  70.0032 175.0428 0002287 280.0073  80.0827 14.98313150 37161,6950.245,96.108,573.7,570.52,0.0
55400.0,STARLINK-5632,PAYLOAD,2023-09-21 18:08:04,14.98313164,0.0002902,70.0037,173.529,266.7847,93.298,0.00015862,1.799e-05,0.0,0 STARLINK-5632,1 55400U 23014K   23264.75561196  .00001799  00000-0  15862-3 0  9992,2 55400  70.0037 173.5290 0002902 266.7847  93.2980 14.98313164 36317,6950.245,96.108,574.127,570.093,0.0
55400.0,STARLINK-5632,PAYLOAD,2023-09-21 21:20:20,14.98329977,0.0002844,70.0032,173.1926,260.69,99.3937,0.00015914,1.806e-05,0.0,0 STARLINK-5632,1 55400U 23014K   23264.88912312  .00001806  00000-0  15914-3 0  9993,2 55400  70.0032 173.1926 0002844 260.6900  99.3937 14.98329977 37276,6950.193,96.107,574.035,570.081,0.0
55400.0,STARLINK-5632,PAYLOAD,2023-09-22 02:08:42,14.98351866,0.0002966,70.0027,172.6863,251.6418,108.4419,0.00050277,5.914e-05,0.0,0 STARLINK-5632,1 55400U 23014K   23265.08938095  .00005914  00000-0  50277-3 0  9997,2 55400  70.0027 172.6863 0002966 251.6418 108.4419 14.98351866 36361,6950.125,96.106,574.052,569.929,0.0
55400.0,STARLINK-5632,PAYLOAD,2023-09-22 03:44:52,14.98331083,0.0002815,70.0023,172.5158,267.9678,92.1159,0.00013139,1.475e-05,0.0,0 STARLINK-5632,1 55400U 23014K   23265.15616366  .00001475  00000-0  13139-3 0  9993,2 55400  70.0023 172.5158 0002815 267.9678  92.1159 14.98331083 36374,6950.19,96.107,574.011,570.098,0.0
55400.0,STARLINK-5632,PAYLOAD,2023-09-22 21:22:21,14.9832691,0.0003161,70.0015,170.6651,268.5833,91.4964,0.00017214,1.961e-05,0.0,0 STARLINK-5632,1 55400U 23014K   23265.89052446  .00001961  00000-0  17214-3 0  9995,2 55400  70.0015 170.6651 0003161 268.5833  91.4964 14.98326910 37423,6950.202,96.107,574.264,569.87,0.0
55400.0,STARLINK-5632,PAYLOAD,2023-09-23 03:46:53,14.98332062,0.0002894,70.002,169.993,261.6109,98.4722,0.00020696,2.377e-05,0.0,0 STARLINK-5632,1 55400U 23014K   23266.15755922  .00002377  00000-0  20696-3 0  9994,2 55400  70.0020 169.9930 0002894 261.6109  98.4722 14.98332062 36526,6950.187,96.107,574.063,570.04,0.0
55400.0,STARLINK-5632,PAYLOAD,2023-09-23 18:12:06,14.98329321,0.0002724,70.0029,168.4797,260.6108,99.4743,7.047e-06,-9e-08,0.0,0 STARLINK-5632,1 55400U 23014K   23266.75840602 -.00000009  00000-0  70470-5 0  9998,2 55400  70.0029 168.4797 0002724 260.6108  99.4743 14.98329321 36618,6950.195,96.107,573.953,570.167,0.0
55400.0,STARLINK-5632,PAYLOAD,2023-09-24 03:48:54,14.98335218,0.0002813,70.0024,167.4686,260.0142,100.07,-5.0949e-05,-7.01e-06,0.0,0 STARLINK-5632,1 55400U 23014K   23267.15896318 -.00000701  00000-0 -50949-4 0  9996,2 55400  70.0024 167.4686 0002813 260.0142 100.0700 14.98335218 37615,6950.177,96.107,573.997,570.087,0.0
55400.0,STARLINK-5632,PAYLOAD,2023-09-24 18:14:07,14.98331,0.0003057,70.0018,165.9534,271.5682,88.5127,-3.2508e-05,-4.81e-06,0.0,0 STARLINK-5632,1 55400U 23014K   23267.75980363 -.00000481  00000-0 -32508-4 0  9992,2 55400  70.0018 165.9534 0003057 271.5682  88.5127 14.98331000 36763,6950.19,96.107,574.179,569.93,0.0
55400.0,STARLINK-5632,PAYLOAD,2023-09-24 21:26:23,14.98330901,0.000318,70.0024,165.6173,272.5209,87.5586,-1.1738e-05,-2.33e-06,0.0,0 STARLINK-5632,1 55400U 23014K   23267.89332271 -.00000233  00000-0 -11738-4 0  9993,2 55400  70.0024 165.6173 0003180 272.5209  87.5586 14.98330901 37723,6950.19,96.107,574.265,569.845,0.0
55400.0,STARLINK-5632,PAYLOAD,2023-09-25 10:15:27,14.98341626,0.0002714,70.0021,164.2702,266.3355,93.7493,-0.00015594,-1.954e-05,0.0,0 STARLINK-5632,1 55400U 23014K   23268.42739774 -.00001954  00000-0 -15594-3 0  9996,2 55400  70.0021 164.2702 0002714 266.3355  93.7493 14.98341626 37809,6950.157,96.106,573.908,570.136,0.0
55400.0,STARLINK-5632,PAYLOAD,2023-09-25 19:52:16,14.98325994,0.0002805,70.0022,163.2613,269.4748,90.6089,1.3171e-05,6.4e-07,0.0,0 STARLINK-5632,1 55400U 23014K   23268.82796373  .00000064  00000-0  13171-4 0  9997,2 55400  70.0022 163.2613 0002805 269.4748  90.6089 14.98325994 36920,6950.205,96.107,574.02,570.121,0.0
55400.0,STARLINK-5632,PAYLOAD,2023-09-25 21:28:24,14.98325719,0.0002762,70.0022,163.093,267.9344,92.1498,7.9981e-06,2e-08,0.0,0 STARLINK-5632,1 55400U 23014K   23268.89472410  .00000002  00000-0  79981-5 0  9991,2 55400  70.0022 163.0930 0002762 267.9344  92.1498 14.98325719 37878,6950.206,96.107,573.991,570.151,0.0
55400.0,STARLINK-5632,PAYLOAD,2023-09-26 02:16:48,14.98329064,0.0002596,70.0019,162.588,260.5688,99.5177,2.1088e-06,-6.8e-07,0.0,0 STARLINK-5632,1 55400U 23014K   23269.09500223 -.00000068  00000-0  21088-5 0  9996,2 55400  70.0019 162.5880 0002596 260.5688  99.5177 14.98329064 37903,6950.196,96.107,573.865,570.257,0.0
